{
  "type": "FeatureCollection",
  "features": [
    {
      "type": "Feature",
      "id": "dalam-kota",
      "properties": {
        "id": "dalam-kota",
        "name": "Tol Dalam Kota (Cawang–Pluit)",
        "zeroKmLabel": "Simpang Susun Cawang",
        "zeroKmCoordinates": [
          106.8772724,
          -6.243457
        ],
        "terminalLabel": "Simpang Susun Pluit",
        "directionA": "Menjauh dari KM 0 Cawang",
        "directionB": "Menuju KM 0 Cawang",
        "matchRadiusM": 60,
        "maxAccuracyM": 100,
        "maxMatchRadiusM": 150,
        "passHysteresisM": 75,
        "passConfirmationFixes": 2,
        "canonicalLengthM": 19647,
        "osmRelationId": 5385689,
        "osmStartNodeId": 309137378,
        "osmEndNodeId": 1757817871,
        "osmRelationTimestamp": "2026-05-26T15:41:07Z",
        "osmSource": "https://www.openstreetmap.org/relation/5385689",
        "osmSnapshotSource": "https://api.openstreetmap.org/api/0.6/relation/5385689/full.json",
        "attribution": "© OpenStreetMap contributors",
        "license": "https://opendatacommons.org/licenses/odbl/1-0/",
        "reviewStatus": "canonical_path_selected",
        "selectedWayIds": [
          361802016,
          1220526615,
          753396019,
          368665596,
          368665593,
          1330580914,
          1330580915,
          1330580912,
          753396017,
          368665597,
          368665595,
          361801994,
          368665592,
          447489915,
          28783038,
          414030044,
          414030043,
          414029884,
          484865486,
          484865485,
          1220521804,
          1220521803,
          414029883,
          487631666,
          414029878,
          414029876,
          1261908059,
          28190910,
          28190908,
          562407890,
          562407889,
          1220256374,
          1074109086,
          28196652,
          749708022,
          749708021,
          1221537686,
          1221537685,
          514077530,
          518966610,
          514485761,
          757042426,
          757042425,
          514485758,
          1220264400,
          761833543,
          761833544,
          757042420,
          1220284330,
          778160387,
          1103639467,
          762375413,
          28909767,
          725250598,
          320149211,
          771547761,
          320149213,
          762961766,
          762961765,
          1492734710,
          413471395,
          413471397,
          413475919,
          1227291263,
          1227291264,
          1227291265
        ]
      },
      "geometry": {
        "type": "LineString",
        "coordinates": [
          [
            106.8772724,
            -6.243457
          ],
          [
            106.877296,
            -6.2437411
          ],
          [
            106.8773232,
            -6.2439736
          ],
          [
            106.8773801,
            -6.2443305
          ],
          [
            106.87741,
            -6.2445159
          ],
          [
            106.8774118,
            -6.2445275
          ],
          [
            106.8774234,
            -6.2446012
          ],
          [
            106.877449,
            -6.2446958
          ],
          [
            106.8775074,
            -6.2448641
          ],
          [
            106.8775092,
            -6.2448692
          ],
          [
            106.8775773,
            -6.2450533
          ],
          [
            106.8776204,
            -6.2451339
          ],
          [
            106.8777494,
            -6.2453752
          ],
          [
            106.8777864,
            -6.2454186
          ],
          [
            106.8779205,
            -6.245576
          ],
          [
            106.8779534,
            -6.2456147
          ],
          [
            106.8779945,
            -6.24566
          ],
          [
            106.8781854,
            -6.2458704
          ],
          [
            106.8782916,
            -6.2460172
          ],
          [
            106.8783556,
            -6.2461056
          ],
          [
            106.878362,
            -6.2461145
          ],
          [
            106.8783894,
            -6.2461617
          ],
          [
            106.8784892,
            -6.2463336
          ],
          [
            106.878534,
            -6.2464267
          ],
          [
            106.8785756,
            -6.2465306
          ],
          [
            106.8786181,
            -6.2466649
          ],
          [
            106.878651,
            -6.2467968
          ],
          [
            106.8786619,
            -6.2468675
          ],
          [
            106.8786674,
            -6.2469398
          ],
          [
            106.8786701,
            -6.2470367
          ],
          [
            106.8786665,
            -6.2471359
          ],
          [
            106.8786549,
            -6.2472434
          ],
          [
            106.8786341,
            -6.247339
          ],
          [
            106.8785999,
            -6.2474396
          ],
          [
            106.8785637,
            -6.2475217
          ],
          [
            106.8784767,
            -6.2476948
          ],
          [
            106.8783573,
            -6.2478179
          ],
          [
            106.878287,
            -6.2478861
          ],
          [
            106.8782529,
            -6.2479161
          ],
          [
            106.8781931,
            -6.2479685
          ],
          [
            106.8781087,
            -6.2480247
          ],
          [
            106.8780104,
            -6.248083
          ],
          [
            106.8780019,
            -6.248087
          ],
          [
            106.877878,
            -6.248146
          ],
          [
            106.8778142,
            -6.2481654
          ],
          [
            106.8777417,
            -6.2481875
          ],
          [
            106.8776406,
            -6.2482032
          ],
          [
            106.8775324,
            -6.24822
          ],
          [
            106.8773895,
            -6.2482295
          ],
          [
            106.8772804,
            -6.2482331
          ],
          [
            106.8772118,
            -6.2482304
          ],
          [
            106.8771511,
            -6.2482167
          ],
          [
            106.8770895,
            -6.2481994
          ],
          [
            106.8770396,
            -6.2481835
          ],
          [
            106.8770084,
            -6.248173
          ],
          [
            106.8769182,
            -6.2481305
          ],
          [
            106.8767991,
            -6.2480645
          ],
          [
            106.8766819,
            -6.2479799
          ],
          [
            106.8766486,
            -6.2479528
          ],
          [
            106.8765476,
            -6.2478611
          ],
          [
            106.8764598,
            -6.2477872
          ],
          [
            106.8763437,
            -6.2476815
          ],
          [
            106.8759973,
            -6.2473536
          ],
          [
            106.8756842,
            -6.2470754
          ],
          [
            106.8755304,
            -6.2469607
          ],
          [
            106.875393,
            -6.2468976
          ],
          [
            106.8752973,
            -6.2468398
          ],
          [
            106.8752259,
            -6.2468016
          ],
          [
            106.8750662,
            -6.2467185
          ],
          [
            106.8749272,
            -6.2466426
          ],
          [
            106.8747356,
            -6.2465569
          ],
          [
            106.8745239,
            -6.2464656
          ],
          [
            106.874369,
            -6.2464116
          ],
          [
            106.8742114,
            -6.246367
          ],
          [
            106.8740143,
            -6.246315
          ],
          [
            106.8729495,
            -6.2460577
          ],
          [
            106.8725023,
            -6.245936
          ],
          [
            106.872213,
            -6.2458502
          ],
          [
            106.8718214,
            -6.2457223
          ],
          [
            106.8717701,
            -6.2457069
          ],
          [
            106.8706565,
            -6.2453733
          ],
          [
            106.8688301,
            -6.2446972
          ],
          [
            106.8684135,
            -6.2445424
          ],
          [
            106.8679205,
            -6.2443593
          ],
          [
            106.8677658,
            -6.2443018
          ],
          [
            106.867237,
            -6.2441053
          ],
          [
            106.8665443,
            -6.243856
          ],
          [
            106.8658268,
            -6.2436207
          ],
          [
            106.8651548,
            -6.2434217
          ],
          [
            106.864695,
            -6.243308
          ],
          [
            106.8641938,
            -6.2432305
          ],
          [
            106.8637265,
            -6.243188
          ],
          [
            106.8632624,
            -6.2431661
          ],
          [
            106.8627369,
            -6.2431649
          ],
          [
            106.8624156,
            -6.2431679
          ],
          [
            106.8588909,
            -6.2432175
          ],
          [
            106.8584154,
            -6.2432204
          ],
          [
            106.8575528,
            -6.2432362
          ],
          [
            106.854907,
            -6.2432363
          ],
          [
            106.85403,
            -6.2432475
          ],
          [
            106.8538007,
            -6.2432475
          ],
          [
            106.8522606,
            -6.2432407
          ],
          [
            106.8519169,
            -6.2432502
          ],
          [
            106.8512289,
            -6.2432738
          ],
          [
            106.8480664,
            -6.2434442
          ],
          [
            106.8474797,
            -6.2434782
          ],
          [
            106.8474005,
            -6.2434828
          ],
          [
            106.8472587,
            -6.2434887
          ],
          [
            106.846679,
            -6.2435126
          ],
          [
            106.8460188,
            -6.2434988
          ],
          [
            106.8451617,
            -6.2434809
          ],
          [
            106.8443363,
            -6.2434249
          ],
          [
            106.8440024,
            -6.2434023
          ],
          [
            106.8434834,
            -6.2433622
          ],
          [
            106.8431005,
            -6.2433078
          ],
          [
            106.8427572,
            -6.2432214
          ],
          [
            106.8424186,
            -6.2431022
          ],
          [
            106.84164,
            -6.2427201
          ],
          [
            106.8411425,
            -6.2425255
          ],
          [
            106.8408394,
            -6.2424215
          ],
          [
            106.840535,
            -6.2423482
          ],
          [
            106.8392846,
            -6.2420745
          ],
          [
            106.8376932,
            -6.2416889
          ],
          [
            106.8353496,
            -6.241133
          ],
          [
            106.8345232,
            -6.2409358
          ],
          [
            106.8333715,
            -6.2406142
          ],
          [
            106.8331502,
            -6.2405162
          ],
          [
            106.8330165,
            -6.2404482
          ],
          [
            106.8325607,
            -6.2402127
          ],
          [
            106.8320367,
            -6.2398754
          ],
          [
            106.8313425,
            -6.2394427
          ],
          [
            106.8295837,
            -6.2383538
          ],
          [
            106.8259702,
            -6.2360547
          ],
          [
            106.8230118,
            -6.2340756
          ],
          [
            106.8225835,
            -6.2337556
          ],
          [
            106.8216046,
            -6.2329014
          ],
          [
            106.821553,
            -6.2328391
          ],
          [
            106.8210112,
            -6.2321939
          ],
          [
            106.8200123,
            -6.2307696
          ],
          [
            106.8189194,
            -6.229098
          ],
          [
            106.8174939,
            -6.2270098
          ],
          [
            106.8171119,
            -6.2264447
          ],
          [
            106.8169321,
            -6.2261767
          ],
          [
            106.8158734,
            -6.2246174
          ],
          [
            106.8155651,
            -6.2241574
          ],
          [
            106.8138354,
            -6.2216089
          ],
          [
            106.8132389,
            -6.2207601
          ],
          [
            106.8127386,
            -6.2200074
          ],
          [
            106.8119806,
            -6.2188972
          ],
          [
            106.809652,
            -6.2154818
          ],
          [
            106.8086539,
            -6.214012
          ],
          [
            106.8086401,
            -6.2139918
          ],
          [
            106.8083082,
            -6.213558
          ],
          [
            106.8079663,
            -6.213202
          ],
          [
            106.8072889,
            -6.212582
          ],
          [
            106.8071013,
            -6.2124114
          ],
          [
            106.8067981,
            -6.2120887
          ],
          [
            106.8066359,
            -6.211854
          ],
          [
            106.8061236,
            -6.2110008
          ],
          [
            106.8060905,
            -6.2109501
          ],
          [
            106.8059338,
            -6.2107102
          ],
          [
            106.8057226,
            -6.2104285
          ],
          [
            106.8054758,
            -6.2101062
          ],
          [
            106.8046979,
            -6.2092516
          ],
          [
            106.8026165,
            -6.206826
          ],
          [
            106.8021835,
            -6.2063129
          ],
          [
            106.8019031,
            -6.2059345
          ],
          [
            106.8016295,
            -6.2055599
          ],
          [
            106.8013142,
            -6.2050576
          ],
          [
            106.8011474,
            -6.2047504
          ],
          [
            106.8006364,
            -6.203728
          ],
          [
            106.8004006,
            -6.203244
          ],
          [
            106.8000929,
            -6.2026107
          ],
          [
            106.7996852,
            -6.2017983
          ],
          [
            106.7993991,
            -6.2012096
          ],
          [
            106.7987866,
            -6.1999288
          ],
          [
            106.7986722,
            -6.1996822
          ],
          [
            106.798221,
            -6.1985971
          ],
          [
            106.7980984,
            -6.1982401
          ],
          [
            106.7977968,
            -6.197239
          ],
          [
            106.7974707,
            -6.1959464
          ],
          [
            106.7973661,
            -6.1954471
          ],
          [
            106.7972928,
            -6.1949739
          ],
          [
            106.7972592,
            -6.194718
          ],
          [
            106.7971996,
            -6.1937903
          ],
          [
            106.7971785,
            -6.1930937
          ],
          [
            106.7971432,
            -6.192232
          ],
          [
            106.7971282,
            -6.1916036
          ],
          [
            106.7971241,
            -6.1914338
          ],
          [
            106.7971005,
            -6.1908181
          ],
          [
            106.797078,
            -6.1902306
          ],
          [
            106.7970501,
            -6.1896545
          ],
          [
            106.7969677,
            -6.1874861
          ],
          [
            106.796937,
            -6.1866376
          ],
          [
            106.7969061,
            -6.1856888
          ],
          [
            106.796904,
            -6.1853821
          ],
          [
            106.7968927,
            -6.1849669
          ],
          [
            106.7968853,
            -6.1847264
          ],
          [
            106.79688,
            -6.1845886
          ],
          [
            106.7968745,
            -6.1842475
          ],
          [
            106.7968578,
            -6.1834745
          ],
          [
            106.7968161,
            -6.1827108
          ],
          [
            106.796781,
            -6.1822851
          ],
          [
            106.7967383,
            -6.1818123
          ],
          [
            106.7966902,
            -6.1815421
          ],
          [
            106.7965949,
            -6.1809741
          ],
          [
            106.7965588,
            -6.1807661
          ],
          [
            106.7964971,
            -6.1805395
          ],
          [
            106.7964327,
            -6.1803155
          ],
          [
            106.7963603,
            -6.1801235
          ],
          [
            106.796223,
            -6.1797665
          ],
          [
            106.7960787,
            -6.1794675
          ],
          [
            106.7959794,
            -6.1792783
          ],
          [
            106.7958695,
            -6.179089
          ],
          [
            106.795732,
            -6.1788654
          ],
          [
            106.795572,
            -6.1786483
          ],
          [
            106.7953166,
            -6.1783126
          ],
          [
            106.7950085,
            -6.1779726
          ],
          [
            106.7947558,
            -6.1777229
          ],
          [
            106.7933164,
            -6.1763887
          ],
          [
            106.7930028,
            -6.1761235
          ],
          [
            106.7928739,
            -6.176005
          ],
          [
            106.7923155,
            -6.1754916
          ],
          [
            106.7920964,
            -6.1752977
          ],
          [
            106.7911481,
            -6.1744174
          ],
          [
            106.7905017,
            -6.1738174
          ],
          [
            106.7902657,
            -6.1735881
          ],
          [
            106.7900511,
            -6.1733534
          ],
          [
            106.7898741,
            -6.1731668
          ],
          [
            106.7897158,
            -6.1729828
          ],
          [
            106.7895522,
            -6.1727881
          ],
          [
            106.7894154,
            -6.1726094
          ],
          [
            106.7892974,
            -6.1724494
          ],
          [
            106.7891606,
            -6.1722601
          ],
          [
            106.7890184,
            -6.1720468
          ],
          [
            106.7889165,
            -6.1718601
          ],
          [
            106.788777,
            -6.1716228
          ],
          [
            106.7886858,
            -6.1714281
          ],
          [
            106.7885517,
            -6.1711161
          ],
          [
            106.788431,
            -6.1707854
          ],
          [
            106.7883264,
            -6.1704814
          ],
          [
            106.7882781,
            -6.1702894
          ],
          [
            106.7882245,
            -6.1700628
          ],
          [
            106.7881816,
            -6.1698521
          ],
          [
            106.788136,
            -6.1694868
          ],
          [
            106.7880877,
            -6.1690761
          ],
          [
            106.7880716,
            -6.1687294
          ],
          [
            106.7880864,
            -6.1682233
          ],
          [
            106.7881118,
            -6.1679721
          ],
          [
            106.7881333,
            -6.1677427
          ],
          [
            106.7881789,
            -6.1674921
          ],
          [
            106.7882433,
            -6.1672201
          ],
          [
            106.788257,
            -6.1671671
          ],
          [
            106.788313,
            -6.1669507
          ],
          [
            106.7883586,
            -6.1667641
          ],
          [
            106.7884042,
            -6.1665987
          ],
          [
            106.7884766,
            -6.1663694
          ],
          [
            106.7885303,
            -6.1662307
          ],
          [
            106.7886054,
            -6.1660387
          ],
          [
            106.7887019,
            -6.1657881
          ],
          [
            106.7892867,
            -6.1644387
          ],
          [
            106.7897011,
            -6.1633514
          ],
          [
            106.7904073,
            -6.161687
          ],
          [
            106.7908184,
            -6.16078
          ],
          [
            106.7909818,
            -6.1604194
          ],
          [
            106.7910722,
            -6.1602124
          ],
          [
            106.7914628,
            -6.1593043
          ],
          [
            106.7918894,
            -6.1583217
          ],
          [
            106.7925724,
            -6.1567486
          ],
          [
            106.7930257,
            -6.1556739
          ],
          [
            106.7933148,
            -6.1549868
          ],
          [
            106.7934845,
            -6.1545774
          ],
          [
            106.7935329,
            -6.154457
          ],
          [
            106.793579,
            -6.1543388
          ],
          [
            106.7936849,
            -6.1540095
          ],
          [
            106.7937305,
            -6.1538148
          ],
          [
            106.793756,
            -6.1536561
          ],
          [
            106.7937654,
            -6.1535374
          ],
          [
            106.7937789,
            -6.1534175
          ],
          [
            106.7937815,
            -6.1532535
          ],
          [
            106.7937788,
            -6.1531041
          ],
          [
            106.7937681,
            -6.152984
          ],
          [
            106.7937493,
            -6.1528428
          ],
          [
            106.7937271,
            -6.1527092
          ],
          [
            106.7936957,
            -6.1525587
          ],
          [
            106.7936367,
            -6.1523667
          ],
          [
            106.7935441,
            -6.1521247
          ],
          [
            106.7934784,
            -6.1519667
          ],
          [
            106.7933872,
            -6.1517694
          ],
          [
            106.7927615,
            -6.1505857
          ],
          [
            106.791989,
            -6.1491217
          ],
          [
            106.7908409,
            -6.1469304
          ],
          [
            106.7888589,
            -6.1432174
          ],
          [
            106.7879048,
            -6.1414249
          ],
          [
            106.7867206,
            -6.1391474
          ],
          [
            106.786569,
            -6.1387434
          ],
          [
            106.786431,
            -6.1382954
          ],
          [
            106.7863437,
            -6.138026
          ],
          [
            106.786274,
            -6.1377793
          ],
          [
            106.7862123,
            -6.137542
          ],
          [
            106.7861788,
            -6.1373593
          ],
          [
            106.7861163,
            -6.137039
          ],
          [
            106.786056,
            -6.136767
          ],
          [
            106.7859675,
            -6.1364117
          ],
          [
            106.7859218,
            -6.1362076
          ],
          [
            106.7858369,
            -6.1358766
          ],
          [
            106.7858236,
            -6.1358238
          ],
          [
            106.7857296,
            -6.1355226
          ],
          [
            106.7855362,
            -6.1348951
          ]
        ]
      }
    }
  ]
}
